C/2019 J2 (Palomar),e,105.1422,25.4739,98.7117,675.2238,0.0000562,0.99744207,0.0000,07/19.7083/2019,2000,g 13.0,4.0
# From MPC117071
C/2019 J3 (ATLAS),h,08/01.9120/2019,131.4134,270.5200,16.5667,1.000084,2.373930,2000,13.5,4.0
# From MPC117071
C/2019 JU6 (ATLAS),e,148.2980,21.7385,94.8863,331.6453,0.0001632,0.99383248,0.0000,05/31.8706/2019,2000,g 14.5,4.0
# From MPC119997
C/2019 K1 (ATLAS),e,87.1474,73.3764,265.7109,67198,0.0000001,0.99997005,0.0000,02/12.9761/2020,2000,g 10.0,4.0
# From MPC119997
C/2019 K4 (Ye),e,105.3027,180.1640,139.7738,1734,0.0000136,0.99869712,0.0000,06/16.3705/2019,2000,g 12.5,4.0
# From MPC119997
C/2019 K5 (Young),e,15.3146,177.1719,174.9483,155.8011,0.0005068,0.98693701,0.0000,06/22.8178/2019,2000,g 13.0,4.0
# From MPC117071
A/2019 K6,e,132.3751,42.9406,187.6223,1576,0.0000158,0.99750659,0.0000,05/20.2081/2020,2000,g 13.6,2.0
# From MPC118095
C/2019 K7 (Smith),h,06/16.9523/2020,103.5385,307.9284,27.3013,1.000531,4.474953,2000,6.2,4.0
# From MPC119997
C/2019 K8 (ATLAS),e,93.2232,291.0444,85.3692,2000,0.0000110,0.99840246,0.0000,07/21.3298/2019,2000,g 11.5,4.0
# From MPC118095
C/2019 L1 (PANSTARRS),e,9.9932,254.4092,49.9426,9.834526,0.0319576,0.70606306,12.2609,08/29.0/2020,2000,g 13.5,4.0
# From MPC115886
C/2019 L2 (NEOWISE),e,152.1796,12.5859,18.7424,24.86830,0.0079476,0.93486379,4.0941,08/29.0/2020,2000,g 16.0,4.0
# From MPC119997
C/2019 L3 (ATLAS),h,01/09.7705/2022,48.3663,290.7840,171.6469,1.000727,3.553714,2000,4.5,4.0
# From MPC118095
C/2019 LB7 (Kleyna),e,164.2814,3.7346,336.4223,35.36725,0.0046860,0.92971333,2.4397,08/29.0/2020,2000,g 17.0,4.0
# From MPC118843
P/2019 M2 (ATLAS),e,12.2821,307.5964,332.5544,3.026265,0.1872163,0.64842670,81.1273,08/29.0/2020,2000,g 21.2,4.0
# From MPC118095
C/2019 M3 (ATLAS),h,01/02.8985/2019,99.4502,154.8969,87.9404,1.001667,2.418690,2000,12.2,4.0
# From MPC119997
C/2019 N1 (ATLAS),e,82.4265,13.5731,193.4461,31332,0.0000002,0.99994560,0.0000,12/01.7892/2020,2000,g  7.5,4.0
# From MPEC 2020-P41
C/2019 NJ3 (Lemmon),h,10/22.2379/2020,99.4383,142.4546,246.8343,1.000830,4.361684,2000,9.0,4.0
# From MPEC 2020-AA5
A/2019 O2,e,93.2859,48.3274,129.6733,57.39300,0.0022668,0.83131433,357.8424,08/29.0/2020,2000,g  9.5,2.0
# From MPC118843
A/2019 O3,h,03/07.7329/2021,89.8122,300.3787,60.0395,1.001853,8.818632,2000,10.0,2.0
# From MPC117072
A/2019 O4,e,115.0855,354.9198,61.8206,32.84687,0.0052356,0.88904235,1.0524,08/29.0/2020,2000,g 15.5,2.0
# From MPEC 2020-AA5
A/2019 Q1,h,07/19.8783/2020,155.7198,42.3362,55.9424,1.000385,4.996683,2000,12.5,2.0
# From MPC117072
A/2019 Q2,e,159.0205,188.0390,176.2994,57.58537,0.0022555,0.97817559,0.0000,07/22.3473/2019,2000,g 18.0,2.0
# From MPC117072
C/2019 Q3 (PANSTARRS),h,08/21.2188/2018,65.5279,151.3241,152.6655,1.004393,7.252188,2000,8.5,4.0
# From MPC117072
P/2019 S2 (PANSTARRS),e,10.4731,93.1275,216.8107,4.735451,0.0956450,0.20681887,53.0569,08/29.0/2020,2000,g 13.5,4.0
# From MPC118096
P/2019 S3 (PANSTARRS),e,8.6931,150.1620,212.9738,3.414441,0.1562157,0.47085499,57.6187,08/29.0/2020,2000,g 18.3,4.0
# From MPEC 2020-AA5
A/2019 S4,e,92.0236,63.1652,71.3597,235.6450,0.0002725,0.98539464,0.0000,04/07.9594/2020,2000,g 14.5,2.0
# From MPC118843
A/2019 T1,e,120.8692,6.9509,91.0139,38.25338,0.0041658,0.88807037,359.4244,08/29.0/2020,2000,g 13.0,2.0
# From MPEC 2020-AA5
A/2019 T2,e,111.4705,155.6383,239.3900,2434,0.0000082,0.99891284,0.0000,04/22.2752/2021,2000,g 12.5,2.0
# From MPC119998
C/2019 T3 (ATLAS),e,121.8627,139.5192,112.2646,5654,0.0000023,0.99894824,0.0000,03/02.5472/2021,2000,g  6.8,4.0
# From MPC119998
C/2019 T4 (ATLAS),e,53.6169,199.9649,351.2152,1009,0.0000307,0.99579655,0.0000,06/09.3766/2022,2000,g  5.0,4.0
# From MPC119998
P/2019 T5 (ATLAS),e,33.4241,247.6915,189.6032,8.010910,0.0434692,0.80919650,17.1216,08/29.0/2020,2000,g 15.0,4.0
# From MPC119998
P/2019 T6 (PANSTARRS),e,18.6956,71.3079,328.9059,5.433739,0.0778137,0.62241011,22.9734,08/29.0/2020,2000,g 15.5,4.0
# From MPC118096
P/2019 U4 (PANSTARRS),e,11.6908,200.0283,180.9628,3.520371,0.1492181,0.47538402,51.5737,08/29.0/2020,2000,g 19.0,4.0
# From MPC118844
A/2019 U5,h,03/30.3353/2023,113.5255,2.6883,181.6074,1.000583,3.621037,2000,10.0,2.0
# From MPEC 2020-AA5
C/2019 U6,e,61.0011,235.7056,329.6612,432.9082,0.0001094,0.99788811,0.0000,06/18.8233/2020,2000,g 14.5,2.0
# From MPC119998
C/2019 V1 (Borisov),e,61.8629,83.2045,51.1951,2197,0.0000096,0.99859006,0.0000,07/16.5556/2020,2000,g 11.0,4.0
# From MPC119998
P/2019 V2 (Groeller),e,11.8040,189.1637,336.3586,7.515053,0.0478416,0.33246489,357.3720,08/29.0/2020,2000,g 10.0,4.0
# From MPC119998
P/2019 W1 (PANSTARRS),e,23.4601,35.4106,18.7147,4.550407,0.1015380,0.26617713,48.6580,08/29.0/2020,2000,g 12.9,4.0
# From MPC119998
P/2019 X1 (Pruyne),e,10.2446,43.7094,36.6101,6.177358,0.0641948,0.30341967,26.0726,08/29.0/2020,2000,g 10.4,4.0
# From MPC119999
C/2019 Y1 (ATLAS),e,73.2530,31.5186,57.9764,86.32879,0.0012288,0.99036729,0.0000,03/15.5961/2020,2000,g 13.7,4.0
# From MPC119999
P/2019 Y2 (Fuls),e,4.9019,81.0809,91.7366,3.528705,0.1486898,0.39612195,31.4245,08/29.0/2020,2000,g 13.2,4.0
# From MPEC 2020-L06
C/2019 Y4 (ATLAS),e,45.3832,120.5715,177.3034,509.9534,0.0000856,0.99950409,0.0000,05/31.0559/2020,2000,g 11.8,6.0
# From MPEC 2020-L06
C/2019 Y4-A (ATLAS),h,05/31.0420/2020,45.8249,120.9278,177.2472,1.001336,0.251022,2000,11.6,6.0
# From MPEC 2020-L06
C/2019 Y4-B (ATLAS),e,45.4595,120.6236,177.3806,1055,0.0000287,0.99976073,0.0000,05/31.0207/2020,2000,g 12.8,6.0
# From MPEC 2020-L06
C/2019 Y4-C (ATLAS),h,05/31.0002/2020,45.6072,120.6535,177.2806,1.002053,0.252072,2000,12.7,6.0
# From MPEC 2020-L06
C/2019 Y4-D (ATLAS),e,45.6486,121.0341,177.4195,67.13275,0.0017919,0.99625412,0.0000,05/31.1173/2020,2000,g 12.5,6.0
# From MPEC 2020-L06
C/2020 A2 (Iwamoto),e,120.7498,286.3791,68.2131,1212,0.0000234,0.99919294,0.0000,01/08.3328/2020,2000,g 13.5,4.0
# From MPEC 2020-L06
C/2020 A3 (ATLAS),h,07/29.5942/2019,146.7770,120.3769,271.1641,1.024763,5.839473,2000,8.0,4.0
# From MPEC 2020-L06
C/2020 B3 (Rankin),e,20.7044,185.8258,325.0830,1627,0.0000150,0.99794416,0.0000,10/19.8309/2019,2000,g 13.0,4.0
# From MPEC 2020-L06
C/2020 F2 (ATLAS),h,07/16.7151/2022,163.5744,250.2500,48.3725,1.002248,8.817054,2000,4.5,4.0
# From MPEC 2020-L06
C/2020 F3 (NEOWISE),e,128.9366,61.0125,37.2718,370.7050,0.0001381,0.99920491,0.0000,07/03.6829/2020,2000,g 12.5,3.2
# From MPEC 2020-L06
C/2020 F5 (MASTER),h,03/23.9579/2021,51.7005,350.6295,311.0141,1.002045,4.326892,2000,6.5,3.2
# From MPEC 2020-L06
C/2020 F6 (PANSTARRS),e,174.5814,207.8807,344.5967,375.3889,0.0001355,0.99064699,0.0000,04/11.5907/2020,2000,g 14.5,2.8
# From MPEC 2020-L06
A/2020 F7,e,93.9502,321.8861,227.9923,789.1145,0.0000445,0.99324371,0.0000,11/14.1386/2021,2000,g 12.0,2.0
# From MPEC 2020-KB7
C/2020 F8 (SWAN),e,110.7955,260.0085,68.2236,274.1192,0.0002172,0.99842989,0.0000,05/27.5661/2020,2000,g 10.0,4.0
# From MPEC 2020-L06
P/2020 G1 (Pimentel),e,18.4771,240.0932,207.6638,3.611771,0.1435898,0.85993690,23.6330,08/29.0/2020,2000,g 17.0,4.0
# From MPEC 2020-L06
C/2020 H2 (Pruyne),e,125.0443,277.6353,26.6947,185.0533,0.0003915,0.99549511,0.0000,04/27.5908/2020,2000,g 18.0,4.0
# From MPEC 2020-HM1
C/2020 H3 (Wierzchos),p,06/05.7162/2020,62.5292,30.4456,2.300288,270.6227,2000,13.5,4.0
# From MPEC 2020-L06
C/2020 H4 (Leonard),e,84.5148,307.7367,117.6124,48.14932,0.0029500,0.98074288,0.0000,08/29.5180/2020,2000,g 15.0,3.2
# From MPEC 2020-L06
C/2020 H5 (Robinson),e,70.2451,210.6034,325.0641,1090,0.0000274,0.99140714,0.0000,11/14.8986/2020,2000,g  5.0,4.0
# From MPEC 2020-L06
C/2020 H6 (ATLAS),h,09/30.9313/2021,79.9612,213.7001,20.3099,1.000874,4.704854,2000,8.0,3.2
# From MPEC 2020-KB7
C/2020 H7 (Lemmon),e,135.9235,323.5194,82.6780,1405,0.0000187,0.99685380,0.0000,06/02.9510/2020,2000,g 11.0,4.0
# From MPEC 2020-KB7
C/2020 H8 (PANSTARRS),p,06/06.7207/2020,99.7116,129.2192,4.678446,68.3225,2000,10.5,4.0
# From MPEC 2020-L06
A/2020 H9,e,137.8687,213.1190,312.8778,519.6485,0.0000832,0.99503700,0.0000,12/21.3272/2019,2000,g 18.0,2.0
# From MPEC 2020-L06
C/2020 J1 (SONEAR),e,142.3001,226.5747,341.6998,492.7331,0.0000901,0.99318057,0.0000,04/19.3112/2021,2000,g  8.5,3.2
# From MPEC 2020-L06
C/2020 K1 (PANSTARRS),h,05/08.1487/2023,89.6511,94.3709,213.8993,1.000795,3.075293,2000,5.5,4.0
# From MPEC 2020-KF5
C/2020 K2 (PANSTARRS),p,12/30.6730/2018,89.7510,34.2348,8.177098,285.5819,2000,6.5,4.0
# From MPEC 2020-KF9
C/2020 K3 (Leonard),p,06/01.0032/2020,129.0152,64.4924,1.583069,28.3546,2000,14.5,4.0
# From MPEC 2020-L06
C/2020 K4 (PANSTARRS),e,125.5628,264.0949,308.7686,23.91958,0.0084251,0.92671914,1.5017,08/29.0/2020,2000,g 16.5,4.0
# From MPEC 2020-L06
C/2020 K5 (PANSTARRS),h,06/05.6084/2021,67.1667,86.1596,249.6091,1.001378,1.535248,2000,11.0,4.0
# From MPEC 2020-L06
C/2020 K6 (Rankin),h,08/25.5549/2021,103.8096,291.5654,41.6133,1.001551,5.995142,2000,8.0,4.0
# From MPEC 2020-L09
C/2020 K7 (PANSTARRS),p,10/05.3027/2021,34.5520,60.8413,5.644571,287.4776,2000,8.0,4.0
# From MPEC 2020-P29
C/2020 P1 (NEOWISE),p,10/20.1731/2020,45.0233,8.9015,0.342498,53.5059,2000,14.0,3.2
# From MPEC 2020-Q01
C/2020 P3 (ATLAS),e,61.6632,18.8130,81.3618,50.78212,0.0027236,0.86676673,359.9975,04/10.0/2021,2000,g  6.0,4.0
# From  98, 1083
1P/Halley,e,162.2964,58.3509,111.2898,17.87114,0.0130460,0.96616753,164.8659,08/29.0/2020,2000,g  4.0,6.0
# From MPC118097
2P/Encke,e,11.7647,334.5505,186.5647,2.215370,0.2989060,0.84800500,19.1762,08/29.0/2020,2000,g 11.5,6.0
# From MPEC 2015-A10
4P/Faye,e,8.0079,193.1068,206.8669,3.828175,0.1315880,0.57761873,310.4898,08/29.0/2020,2000,g  8.0,6.0
# From MPEC 2015-S97
6P/d'Arrest,e,19.5121,138.9343,178.0940,3.497734,0.1506690,0.61260646,302.0251,08/29.0/2020,2000,g  9.0,4.0
# From MPEC 2015-E14
7P/Pons-Winnecke,e,22.3640,93.3789,172.5777,3.414822,0.1561896,0.63852458,317.6580,08/29.0/2020,2000,g  9.0,4.0
# From MPC 75715
8P/Tuttle,e,54.9116,270.2048,207.4904,5.703673,0.0723556,0.82008411,333.6783,08/29.0/2020,2000,g  9.0,4.0
# From MPEC 2019-JE2
